{"fetched_at":"2026-03-29T16:36:15Z","count":15609,"tles":[{"name":"NAVSTAR 63 (USA 203)","line1":"1 34661U 09014A   26087.78087439 -.00000040  00000+0  00000+0 0  9996","line2":"2 34661  54.4989 213.8776 0144722  61.5073 299.8803  2.00555090124672","category":"GPS"}]}